[{"OBJECT_NAME":"STARLINK-35807","OBJECT_ID":"2025-254L","EPOCH":"2025-11-19T04:46:09.413184","MEAN_MOTION":15.81857756,"ECCENTRICITY":0.00030304,"INCLINATION":53.1572,"RA_OF_ASC_NODE":31.8084,"ARG_OF_PERICENTER":207.8077,"MEAN_ANOMALY":152.2785,"EPHEMERIS_TYPE":0,"CLASSIFICATION_TYPE":"U","NORAD_CAT_ID":66358,"ELEMENT_SET_NO":999,"REV_AT_EPOCH":197,"BSTAR":0.0022552214,"MEAN_MOTION_DOT":0.00492643,"MEAN_MOTION_DDOT":0},{"OBJECT_NAME":"STARLINK-35805","OBJECT_ID":"2025-254M","EPOCH":"2025-11-19T04:44:44.685024","MEAN_MOTION":15.8345467,"ECCENTRICITY":0.00016125,"INCLINATION":53.1572,"RA_OF_ASC_NODE":31.8025,"ARG_OF_PERICENTER":55.3503,"MEAN_ANOMALY":304.7672,"EPHEMERIS_TYPE":0,"CLASSIFICATION_TYPE":"U","NORAD_CAT_ID":66359,"ELEMENT_SET_NO":999,"REV_AT_EPOCH":311,"BSTAR":0.0024309903,"MEAN_MOTION_DOT":0.00578029,"MEAN_MOTION_DDOT":0},{"OBJECT_NAME":"STARLINK-35823","OBJECT_ID":"2025-254N","EPOCH":"2025-11-19T00:00:02.000160","MEAN_MOTION":15.80567137,"ECCENTRICITY":0.00013407,"INCLINATION":53.157,"RA_OF_ASC_NODE":32.7222,"ARG_OF_PERICENTER":44.7882,"MEAN_ANOMALY":305.8325,"EPHEMERIS_TYPE":0,"CLASSIFICATION_TYPE":"U","NORAD_CAT_ID":66360,"ELEMENT_SET_NO":999,"REV_AT_EPOCH":310,"BSTAR":-0.0094735041,"MEAN_MOTION_DOT":-0.01610231,"MEAN_MOTION_DDOT":0},{"OBJECT_NAME":"STARLINK-35813","OBJECT_ID":"2025-254P","EPOCH":"2025-11-19T06:15:11.421504","MEAN_MOTION":15.82969316,"ECCENTRICITY":0.00074483,"INCLINATION":53.1572,"RA_OF_ASC_NODE":31.4827,"ARG_OF_PERICENTER":219.0664,"MEAN_ANOMALY":140.9823,"EPHEMERIS_TYPE":0,"CLASSIFICATION_TYPE":"U","NORAD_CAT_ID":66361,"ELEMENT_SET_NO":999,"REV_AT_EPOCH":198,"BSTAR":0.0022136581,"MEAN_MOTION_DOT":0.00510834,"MEAN_MOTION_DDOT":0},{"OBJECT_NAME":"STARLINK-35822","OBJECT_ID":"2025-254Q","EPOCH":"2025-11-19T06:13:17.099616","MEAN_MOTION":15.82982764,"ECCENTRICITY":0.00090427,"INCLINATION":53.157,"RA_OF_ASC_NODE":31.4743,"ARG_OF_PERICENTER":219.756,"MEAN_ANOMALY":140.2802,"EPHEMERIS_TYPE":0,"CLASSIFICATION_TYPE":"U","NORAD_CAT_ID":66362,"ELEMENT_SET_NO":999,"REV_AT_EPOCH":198,"BSTAR":0.0022060524,"MEAN_MOTION_DOT":0.00509688,"MEAN_MOTION_DDOT":0},{"OBJECT_NAME":"STARLINK-35806","OBJECT_ID":"2025-254R","EPOCH":"2025-11-19T04:43:37.026048","MEAN_MOTION":15.81694995,"ECCENTRICITY":0.00032989,"INCLINATION":53.1569,"RA_OF_ASC_NODE":31.7966,"ARG_OF_PERICENTER":225.4171,"MEAN_ANOMALY":134.6583,"EPHEMERIS_TYPE":0,"CLASSIFICATION_TYPE":"U","NORAD_CAT_ID":66363,"ELEMENT_SET_NO":999,"REV_AT_EPOCH":197,"BSTAR":0.0020506695,"MEAN_MOTION_DOT":0.00441907,"MEAN_MOTION_DDOT":0},{"OBJECT_NAME":"STARLINK-35797","OBJECT_ID":"2025-254S","EPOCH":"2025-11-19T00:00:02.000160","MEAN_MOTION":15.80866563,"ECCENTRICITY":6.4e-5,"INCLINATION":53.1565,"RA_OF_ASC_NODE":32.7415,"ARG_OF_PERICENTER":81.7598,"MEAN_ANOMALY":256.6784,"EPHEMERIS_TYPE":0,"CLASSIFICATION_TYPE":"U","NORAD_CAT_ID":66364,"ELEMENT_SET_NO":999,"REV_AT_EPOCH":310,"BSTAR":-0.0093856922,"MEAN_MOTION_DOT":-0.01616212,"MEAN_MOTION_DDOT":0},{"OBJECT_NAME":"STARLINK-35827","OBJECT_ID":"2025-254T","EPOCH":"2025-11-19T06:12:06.846048","MEAN_MOTION":15.8030066,"ECCENTRICITY":0.00030729,"INCLINATION":53.1572,"RA_OF_ASC_NODE":31.4675,"ARG_OF_PERICENTER":346.1032,"MEAN_ANOMALY":13.9906,"EPHEMERIS_TYPE":0,"CLASSIFICATION_TYPE":"U","NORAD_CAT_ID":66365,"ELEMENT_SET_NO":999,"REV_AT_EPOCH":198,"BSTAR":-0.00063029073,"MEAN_MOTION_DOT":-0.00120237,"MEAN_MOTION_DDOT":0},{"OBJECT_NAME":"STARLINK-35845","OBJECT_ID":"2025-254U","EPOCH":"2025-11-19T06:10:57.041760","MEAN_MOTION":15.84930079,"ECCENTRICITY":0.00169205,"INCLINATION":53.1569,"RA_OF_ASC_NODE":31.4614,"ARG_OF_PERICENTER":243.2242,"MEAN_ANOMALY":116.7052,"EPHEMERIS_TYPE":0,"CLASSIFICATION_TYPE":"U","NORAD_CAT_ID":66366,"ELEMENT_SET_NO":999,"REV_AT_EPOCH":198,"BSTAR":0.0017796433,"MEAN_MOTION_DOT":0.00450929,"MEAN_MOTION_DDOT":0},{"OBJECT_NAME":"STARLINK-35846","OBJECT_ID":"2025-254V","EPOCH":"2025-11-19T06:11:31.856640","MEAN_MOTION":15.80323261,"ECCENTRICITY":0.00020897,"INCLINATION":53.157,"RA_OF_ASC_NODE":31.4647,"ARG_OF_PERICENTER":354.72,"MEAN_ANOMALY":5.38,"EPHEMERIS_TYPE":0,"CLASSIFICATION_TYPE":"U","NORAD_CAT_ID":66367,"ELEMENT_SET_NO":999,"REV_AT_EPOCH":198,"BSTAR":-0.001264625,"MEAN_MOTION_DOT":-0.0023753,"MEAN_MOTION_DDOT":0},{"OBJECT_NAME":"STARLINK-34861","OBJECT_ID":"2025-254W","EPOCH":"2025-11-19T06:10:21.068256","MEAN_MOTION":15.8021974,"ECCENTRICITY":0.0002708,"INCLINATION":53.1565,"RA_OF_ASC_NODE":31.4576,"ARG_OF_PERICENTER":333.5106,"MEAN_ANOMALY":26.5778,"EPHEMERIS_TYPE":0,"CLASSIFICATION_TYPE":"U","NORAD_CAT_ID":66368,"ELEMENT_SET_NO":999,"REV_AT_EPOCH":198,"BSTAR":-0.0013068368,"MEAN_MOTION_DOT":-0.0024413,"MEAN_MOTION_DDOT":0},{"OBJECT_NAME":"STARLINK-35795","OBJECT_ID":"2025-254X","EPOCH":"2025-11-19T04:38:42.759744","MEAN_MOTION":15.83335616,"ECCENTRICITY":0.00072228,"INCLINATION":53.1564,"RA_OF_ASC_NODE":31.7726,"ARG_OF_PERICENTER":232.7086,"MEAN_ANOMALY":127.328,"EPHEMERIS_TYPE":0,"CLASSIFICATION_TYPE":"U","NORAD_CAT_ID":66369,"ELEMENT_SET_NO":999,"REV_AT_EPOCH":197,"BSTAR":-0.0035438392,"MEAN_MOTION_DOT":-0.00726023,"MEAN_MOTION_DDOT":0},{"OBJECT_NAME":"STARLINK-35824","OBJECT_ID":"2025-254Y","EPOCH":"2025-11-19T00:00:02.000160","MEAN_MOTION":15.73009276,"ECCENTRICITY":0.0004522,"INCLINATION":53.157,"RA_OF_ASC_NODE":32.7773,"ARG_OF_PERICENTER":337.1244,"MEAN_ANOMALY":343.6414,"EPHEMERIS_TYPE":0,"CLASSIFICATION_TYPE":"U","NORAD_CAT_ID":66370,"ELEMENT_SET_NO":999,"REV_AT_EPOCH":307,"BSTAR":0.06639546,"MEAN_MOTION_DOT":0.11656309,"MEAN_MOTION_DDOT":0},{"OBJECT_NAME":"STARLINK-35804","OBJECT_ID":"2025-254Z","EPOCH":"2025-11-19T06:08:26.493216","MEAN_MOTION":15.79969074,"ECCENTRICITY":0.00031284,"INCLINATION":53.1567,"RA_OF_ASC_NODE":31.4498,"ARG_OF_PERICENTER":341.8781,"MEAN_ANOMALY":18.213,"EPHEMERIS_TYPE":0,"CLASSIFICATION_TYPE":"U","NORAD_CAT_ID":66371,"ELEMENT_SET_NO":999,"REV_AT_EPOCH":198,"BSTAR":-0.0006325645,"MEAN_MOTION_DOT":-0.00118875,"MEAN_MOTION_DDOT":0},{"OBJECT_NAME":"STARLINK-35821","OBJECT_ID":"2025-254AA","EPOCH":"2025-11-19T06:09:06.347808","MEAN_MOTION":15.80090968,"ECCENTRICITY":0.00030262,"INCLINATION":53.1571,"RA_OF_ASC_NODE":31.4527,"ARG_OF_PERICENTER":341.2016,"MEAN_ANOMALY":18.8894,"EPHEMERIS_TYPE":0,"CLASSIFICATION_TYPE":"U","NORAD_CAT_ID":66372,"ELEMENT_SET_NO":999,"REV_AT_EPOCH":198,"BSTAR":-0.0013543851,"MEAN_MOTION_DOT":-0.00251317,"MEAN_MOTION_DDOT":0},{"OBJECT_NAME":"STARLINK-35809","OBJECT_ID":"2025-254AB","EPOCH":"2025-11-19T00:00:02.000160","MEAN_MOTION":15.6642765,"ECCENTRICITY":0.00150635,"INCLINATION":53.158,"RA_OF_ASC_NODE":32.7809,"ARG_OF_PERICENTER":282.268,"MEAN_ANOMALY":31.6118,"EPHEMERIS_TYPE":0,"CLASSIFICATION_TYPE":"U","NORAD_CAT_ID":66373,"ELEMENT_SET_NO":999,"REV_AT_EPOCH":310,"BSTAR":0.19801091,"MEAN_MOTION_DOT":0.21226236,"MEAN_MOTION_DDOT":0},{"OBJECT_NAME":"STARLINK-35831","OBJECT_ID":"2025-254AC","EPOCH":"2025-11-19T06:07:17.611680","MEAN_MOTION":15.79903603,"ECCENTRICITY":0.00023392,"INCLINATION":53.1567,"RA_OF_ASC_NODE":31.4426,"ARG_OF_PERICENTER":345.7761,"MEAN_ANOMALY":14.3195,"EPHEMERIS_TYPE":0,"CLASSIFICATION_TYPE":"U","NORAD_CAT_ID":66374,"ELEMENT_SET_NO":999,"REV_AT_EPOCH":198,"BSTAR":-0.00072129842,"MEAN_MOTION_DOT":-0.00134776,"MEAN_MOTION_DDOT":0},{"OBJECT_NAME":"STARLINK-35826","OBJECT_ID":"2025-254AD","EPOCH":"2025-11-19T06:06:44.412480","MEAN_MOTION":15.79858636,"ECCENTRICITY":0.0002146,"INCLINATION":53.1567,"RA_OF_ASC_NODE":31.4405,"ARG_OF_PERICENTER":353.9755,"MEAN_ANOMALY":6.1241,"EPHEMERIS_TYPE":0,"CLASSIFICATION_TYPE":"U","NORAD_CAT_ID":66375,"ELEMENT_SET_NO":999,"REV_AT_EPOCH":198,"BSTAR":-0.0003364973,"MEAN_MOTION_DOT":-0.00063626,"MEAN_MOTION_DDOT":0},{"OBJECT_NAME":"STARLINK-35139","OBJECT_ID":"2025-257A","EPOCH":"2025-11-18T16:00:05.000256","MEAN_MOTION":15.86747698,"ECCENTRICITY":0.000111,"INCLINATION":53.154,"RA_OF_ASC_NODE":20.5713,"ARG_OF_PERICENTER":48.452,"MEAN_ANOMALY":14.8525,"EPHEMERIS_TYPE":0,"CLASSIFICATION_TYPE":"U","NORAD_CAT_ID":66380,"ELEMENT_SET_NO":999,"REV_AT_EPOCH":256,"BSTAR":-0.0057033,"MEAN_MOTION_DOT":-0.01312438,"MEAN_MOTION_DDOT":0},{"OBJECT_NAME":"STARLINK-35158","OBJECT_ID":"2025-257B","EPOCH":"2025-11-18T16:00:05.000256","MEAN_MOTION":15.86779918,"ECCENTRICITY":0.000104,"INCLINATION":53.1536,"RA_OF_ASC_NODE":20.5675,"ARG_OF_PERICENTER":50.0507,"MEAN_ANOMALY":14.8178,"EPHEMERIS_TYPE":0,"CLASSIFICATION_TYPE":"U","NORAD_CAT_ID":66381,"ELEMENT_SET_NO":999,"REV_AT_EPOCH":262,"BSTAR":-0.0056758,"MEAN_MOTION_DOT":-0.01308655,"MEAN_MOTION_DDOT":0},{"OBJECT_NAME":"STARLINK-35639","OBJECT_ID":"2025-257C","EPOCH":"2025-11-18T16:00:05.000256","MEAN_MOTION":15.86808402,"ECCENTRICITY":0.000114,"INCLINATION":53.1533,"RA_OF_ASC_NODE":20.5627,"ARG_OF_PERICENTER":51.3096,"MEAN_ANOMALY":15.8134,"EPHEMERIS_TYPE":0,"CLASSIFICATION_TYPE":"U","NORAD_CAT_ID":66382,"ELEMENT_SET_NO":999,"REV_AT_EPOCH":262,"BSTAR":-0.0057236,"MEAN_MOTION_DOT":-0.01320061,"MEAN_MOTION_DDOT":0},{"OBJECT_NAME":"STARLINK-35690","OBJECT_ID":"2025-257D","EPOCH":"2025-11-18T16:00:05.000256","MEAN_MOTION":15.86798971,"ECCENTRICITY":8.31e-5,"INCLINATION":53.1532,"RA_OF_ASC_NODE":20.5485,"ARG_OF_PERICENTER":64.9568,"MEAN_ANOMALY":8.8396,"EPHEMERIS_TYPE":0,"CLASSIFICATION_TYPE":"U","NORAD_CAT_ID":66383,"ELEMENT_SET_NO":999,"REV_AT_EPOCH":262,"BSTAR":-0.00585,"MEAN_MOTION_DOT":-0.01344862,"MEAN_MOTION_DDOT":0},{"OBJECT_NAME":"STARLINK-35662","OBJECT_ID":"2025-257E","EPOCH":"2025-11-18T16:00:05.000256","MEAN_MOTION":15.86826129,"ECCENTRICITY":0.0001137,"INCLINATION":53.1534,"RA_OF_ASC_NODE":20.5448,"ARG_OF_PERICENTER":52.0881,"MEAN_ANOMALY":23.7302,"EPHEMERIS_TYPE":0,"CLASSIFICATION_TYPE":"U","NORAD_CAT_ID":66384,"ELEMENT_SET_NO":999,"REV_AT_EPOCH":262,"BSTAR":-0.0058537,"MEAN_MOTION_DOT":-0.01347402,"MEAN_MOTION_DDOT":0}]
